0 COSMOS 304
1 04138U 69091A   13283.01553447  .00000016  00000-0  11968-4 0  9915
2 04138 074.0401 234.8836 0014069 309.0347 120.0642 14.45824756318489
0 COSMOS 304
1 04138U 69091A   13284.19799013  .00000021  00000-0  13555-4 0  9927
2 04138 074.0403 232.6785 0014091 306.7356 154.5097 14.45824848318656
0 COSMOS 304
1 04138U 69091A   13285.44985193  .00000006  00000-0  93421-5 0  9937
2 04138 074.0405 230.3440 0014114 304.3034 190.1987 14.45825040318833
0 COSMOS 304
1 04138U 69091A   13286.95853661  .00000038  00000-0  18176-4 0  9947
2 04138 074.0407 227.5306 0014136 301.3589 122.6146 14.45825163319058
0 COSMOS 304
1 04138U 69091A   13288.14611385  .00000091  00000-0  33289-4 0  9957
2 04138 074.0408 225.3162 0014157 299.0422 183.7278 14.45825255319222
0 COSMOS 304
1 04138U 69091A   13289.39465351  .00000065  00000-0  25963-4 0  9967
2 04138 074.0409 222.9881 0014178 296.6402 202.1041 14.45825582319405
0 COSMOS 304
1 04138U 69091A   13290.75923130  .00000092  00000-0  33378-4 0  9973
2 04138 074.0409 220.4438 0014195 293.9899 104.4607 14.45825702319603
0 COSMOS 304
1 04138U 69091A   13291.86945512  .00000075  00000-0  28703-4 0  9982
2 04138 074.0408 218.3738 0014206 291.8140 122.9746 14.45826024319764
0 COSMOS 304
1 04138U 69091A   13293.19367679  .00000084  00000-0  31223-4 0  9994
2 04138 074.0408 215.9047 0014217 289.2316 175.2985 14.45826241319956
0 COSMOS 304
1 04138U 69091A   13294.37521649  .00000059  00000-0  24092-4 0    05
2 04138 074.0408 213.7016 0014217 286.9956 204.9208 14.45826732320126
0 COSMOS 304
1 04138U 69091A   13295.88410315  .00000054  00000-0  22796-4 0    14
2 04138 074.0408 210.8881 0014221 284.0289 138.4181 14.45827211320345
